{"fetched_at":"2026-07-10T18:08:17.543Z","source":"https://celestrak.org/NORAD/elements/gp.php?NAME=JILIN&FORMAT=JSON","constellation":"jilin-1-gaofen","records":[{"OBJECT_NAME":"JILIN-1 GAOFEN 3A","OBJECT_ID":"2019-032C","EPOCH":"2026-07-10T06:50:13.799616","CLASSIFICATION_TYPE":"U","MEAN_MOTION":15.33130221,"ECCENTRICITY":0.00046771,"INCLINATION":44.9741,"RA_OF_ASC_NODE":229.7684,"ARG_OF_PERICENTER":68.4173,"MEAN_ANOMALY":291.721,"EPHEMERIS_TYPE":0,"NORAD_CAT_ID":44312,"ELEMENT_SET_NO":999,"REV_AT_EPOCH":39138,"BSTAR":0.0002190742,"MEAN_MOTION_DOT":0.00006843,"MEAN_MOTION_DDOT":0},{"OBJECT_NAME":"JILIN-1 GAOFEN 2A","OBJECT_ID":"2019-075A","EPOCH":"2026-07-10T06:32:45.413376","CLASSIFICATION_TYPE":"U","MEAN_MOTION":15.39930418,"ECCENTRICITY":0.00056781,"INCLINATION":97.4963,"RA_OF_ASC_NODE":275.6111,"ARG_OF_PERICENTER":13.5991,"MEAN_ANOMALY":346.5406,"EPHEMERIS_TYPE":0,"NORAD_CAT_ID":44777,"ELEMENT_SET_NO":999,"REV_AT_EPOCH":36843,"BSTAR":0.00025322309,"MEAN_MOTION_DOT":0.0001,"MEAN_MOTION_DDOT":0},{"OBJECT_NAME":"JILIN-1 GAOFEN 2B","OBJECT_ID":"2019-086A","EPOCH":"2026-07-10T07:22:18.757920","CLASSIFICATION_TYPE":"U","MEAN_MOTION":15.20965533,"ECCENTRICITY":0.00128459,"INCLINATION":97.4876,"RA_OF_ASC_NODE":263.1555,"ARG_OF_PERICENTER":234.1673,"MEAN_ANOMALY":125.837,"EPHEMERIS_TYPE":0,"NORAD_CAT_ID":44836,"ELEMENT_SET_NO":999,"REV_AT_EPOCH":36400,"BSTAR":0.00017778223,"MEAN_MOTION_DOT":0.00003875,"MEAN_MOTION_DDOT":0},{"OBJECT_NAME":"JILIN-1 GAOFEN 3E","OBJECT_ID":"2020-065D","EPOCH":"2026-07-10T07:16:06.459456","CLASSIFICATION_TYPE":"U","MEAN_MOTION":15.66711002,"ECCENTRICITY":0.00110444,"INCLINATION":97.2222,"RA_OF_ASC_NODE":244.4916,"ARG_OF_PERICENTER":87.6881,"MEAN_ANOMALY":272.5644,"EPHEMERIS_TYPE":0,"NORAD_CAT_ID":46457,"ELEMENT_SET_NO":999,"REV_AT_EPOCH":32337,"BSTAR":0.0005613406,"MEAN_MOTION_DOT":0.00059301,"MEAN_MOTION_DDOT":0},{"OBJECT_NAME":"JILIN-1 GAOFEN 3F","OBJECT_ID":"2020-065E","EPOCH":"2026-07-10T07:22:32.290752","CLASSIFICATION_TYPE":"U","MEAN_MOTION":15.63517479,"ECCENTRICITY":0.00123742,"INCLINATION":97.2181,"RA_OF_ASC_NODE":241.7139,"ARG_OF_PERICENTER":74.2169,"MEAN_ANOMALY":286.0454,"EPHEMERIS_TYPE":0,"NORAD_CAT_ID":46458,"ELEMENT_SET_NO":999,"REV_AT_EPOCH":32331,"BSTAR":0.00053506075,"MEAN_MOTION_DOT":0.00049775,"MEAN_MOTION_DDOT":0},{"OBJECT_NAME":"JILIN-1 GAOFEN 3G","OBJECT_ID":"2020-065F","EPOCH":"2026-07-10T07:06:57.132576","CLASSIFICATION_TYPE":"U","MEAN_MOTION":15.76044337,"ECCENTRICITY":0.00048225,"INCLINATION":97.2236,"RA_OF_ASC_NODE":248.9265,"ARG_OF_PERICENTER":301.3124,"MEAN_ANOMALY":58.767,"EPHEMERIS_TYPE":0,"NORAD_CAT_ID":46459,"ELEMENT_SET_NO":999,"REV_AT_EPOCH":32357,"BSTAR":0.00059780208,"MEAN_MOTION_DOT":0.00093475,"MEAN_MOTION_DDOT":0},{"OBJECT_NAME":"JILIN-1 GAOFEN 3H","OBJECT_ID":"2020-065G","EPOCH":"2026-07-10T07:49:09.883776","CLASSIFICATION_TYPE":"U","MEAN_MOTION":15.71595453,"ECCENTRICITY":0.00056666,"INCLINATION":97.2189,"RA_OF_ASC_NODE":245.1292,"ARG_OF_PERICENTER":219.6884,"MEAN_ANOMALY":140.3966,"EPHEMERIS_TYPE":0,"NORAD_CAT_ID":46460,"ELEMENT_SET_NO":999,"REV_AT_EPOCH":32351,"BSTAR":0.00059521517,"MEAN_MOTION_DOT":0.00076817,"MEAN_MOTION_DDOT":0},{"OBJECT_NAME":"JILIN-1 GAOFEN 2D","OBJECT_ID":"2021-086A","EPOCH":"2026-07-10T06:37:10.450560","CLASSIFICATION_TYPE":"U","MEAN_MOTION":15.10842794,"ECCENTRICITY":0.00343583,"INCLINATION":97.6498,"RA_OF_ASC_NODE":313.9837,"ARG_OF_PERICENTER":66.95,"MEAN_ANOMALY":293.5346,"EPHEMERIS_TYPE":0,"NORAD_CAT_ID":49256,"ELEMENT_SET_NO":999,"REV_AT_EPOCH":26420,"BSTAR":0.00018443226,"MEAN_MOTION_DOT":0.00003042,"MEAN_MOTION_DDOT":0},{"OBJECT_NAME":"JILIN-1 GAOFEN 2F","OBJECT_ID":"2021-097A","EPOCH":"2026-07-10T07:52:36.394464","CLASSIFICATION_TYPE":"U","MEAN_MOTION":15.07925856,"ECCENTRICITY":0.00196001,"INCLINATION":97.6719,"RA_OF_ASC_NODE":317.4759,"ARG_OF_PERICENTER":145.0649,"MEAN_ANOMALY":215.187,"EPHEMERIS_TYPE":0,"NORAD_CAT_ID":49338,"ELEMENT_SET_NO":999,"REV_AT_EPOCH":25980,"BSTAR":0.00013490822,"MEAN_MOTION_DOT":0.00002015,"MEAN_MOTION_DDOT":0},{"OBJECT_NAME":"JILIN-1 GAOFEN 3D27","OBJECT_ID":"2022-048B","EPOCH":"2026-07-10T07:06:55.787328","CLASSIFICATION_TYPE":"U","MEAN_MOTION":15.81777133,"ECCENTRICITY":0.00045957,"INCLINATION":97.5715,"RA_OF_ASC_NODE":307.4373,"ARG_OF_PERICENTER":256.2146,"MEAN_ANOMALY":103.8611,"EPHEMERIS_TYPE":0,"NORAD_CAT_ID":52444,"ELEMENT_SET_NO":999,"REV_AT_EPOCH":23312,"BSTAR":0.00070306802,"MEAN_MOTION_DOT":0.00143009,"MEAN_MOTION_DDOT":0},{"OBJECT_NAME":"JILIN-1 GAOFEN 3D28","OBJECT_ID":"2022-048C","EPOCH":"2026-07-10T01:15:46.209888","CLASSIFICATION_TYPE":"U","MEAN_MOTION":15.86277134,"ECCENTRICITY":0.00042798,"INCLINATION":97.5652,"RA_OF_ASC_NODE":307.435,"ARG_OF_PERICENTER":250.5223,"MEAN_ANOMALY":109.5586,"EPHEMERIS_TYPE":0,"NORAD_CAT_ID":52445,"ELEMENT_SET_NO":999,"REV_AT_EPOCH":23314,"BSTAR":0.0007868424,"MEAN_MOTION_DOT":0.00199157,"MEAN_MOTION_DDOT":0},{"OBJECT_NAME":"JILIN-1 GAOFEN 3D29","OBJECT_ID":"2022-048D","EPOCH":"2026-07-10T06:46:07.091328","CLASSIFICATION_TYPE":"U","MEAN_MOTION":15.81968246,"ECCENTRICITY":0.0004013,"INCLINATION":97.5711,"RA_OF_ASC_NODE":307.7859,"ARG_OF_PERICENTER":234.8784,"MEAN_ANOMALY":125.2109,"EPHEMERIS_TYPE":0,"NORAD_CAT_ID":52446,"ELEMENT_SET_NO":999,"REV_AT_EPOCH":23314,"BSTAR":0.00067233181,"MEAN_MOTION_DOT":0.0013786,"MEAN_MOTION_DDOT":0},{"OBJECT_NAME":"JILIN-1 GAOFEN 3D31","OBJECT_ID":"2022-048F","EPOCH":"2026-07-10T06:41:29.468256","CLASSIFICATION_TYPE":"U","MEAN_MOTION":15.91509655,"ECCENTRICITY":0.00050117,"INCLINATION":97.5687,"RA_OF_ASC_NODE":309.053,"ARG_OF_PERICENTER":243.8447,"MEAN_ANOMALY":116.231,"EPHEMERIS_TYPE":0,"NORAD_CAT_ID":52448,"ELEMENT_SET_NO":999,"REV_AT_EPOCH":23324,"BSTAR":0.00077237261,"MEAN_MOTION_DOT":0.00247503,"MEAN_MOTION_DDOT":0.000024904877},{"OBJECT_NAME":"JILIN-1 GAOFEN 03D09","OBJECT_ID":"2022-098B","EPOCH":"2026-07-10T07:29:57.200640","CLASSIFICATION_TYPE":"U","MEAN_MOTION":15.69690983,"ECCENTRICITY":0.00031347,"INCLINATION":97.5612,"RA_OF_ASC_NODE":322.7738,"ARG_OF_PERICENTER":248.358,"MEAN_ANOMALY":111.7348,"EPHEMERIS_TYPE":0,"NORAD_CAT_ID":53445,"ELEMENT_SET_NO":999,"REV_AT_EPOCH":21825,"BSTAR":0.00049966343,"MEAN_MOTION_DOT":0.000594,"MEAN_MOTION_DDOT":0},{"OBJECT_NAME":"JILIN-1 GAOFEN 03D43","OBJECT_ID":"2022-098E","EPOCH":"2026-07-09T23:33:55.385856","CLASSIFICATION_TYPE":"U","MEAN_MOTION":15.73272519,"ECCENTRICITY":0.00034187,"INCLINATION":97.56,"RA_OF_ASC_NODE":323.5482,"ARG_OF_PERICENTER":243.0253,"MEAN_ANOMALY":117.0661,"EPHEMERIS_TYPE":0,"NORAD_CAT_ID":53448,"ELEMENT_SET_NO":999,"REV_AT_EPOCH":21827,"BSTAR":0.00060445747,"MEAN_MOTION_DOT":0.00083759,"MEAN_MOTION_DDOT":0},{"OBJECT_NAME":"JILIN-1 GAOFEN 03D08","OBJECT_ID":"2022-155A","EPOCH":"2026-07-10T08:42:37.029312","CLASSIFICATION_TYPE":"U","MEAN_MOTION":15.6711319,"ECCENTRICITY":0.00039988,"INCLINATION":97.6221,"RA_OF_ASC_NODE":338.6611,"ARG_OF_PERICENTER":245.1115,"MEAN_ANOMALY":114.973,"EPHEMERIS_TYPE":0,"NORAD_CAT_ID":54251,"ELEMENT_SET_NO":999,"REV_AT_EPOCH":20344,"BSTAR":0.00045131059,"MEAN_MOTION_DOT":0.00048231,"MEAN_MOTION_DDOT":0}]}
