JILIN-1 GAOFEN 3A       
1 44312U 19032C   26191.28488194  .00006843  00000+0  21907-3 0  9994
2 44312  44.9741 229.7684 0004677  68.4173 291.7210 15.33130221391383
JILIN-1 GAOFEN 2A       
1 44777U 19075A   26191.27274784  .00010000  00000+0  25322-3 0  9998
2 44777  97.4963 275.6111 0005678  13.5991 346.5406 15.39930418368431
JILIN-1 GAOFEN 2B       
1 44836U 19086A   26191.30716155  .00003875  00000+0  17778-3 0  9991
2 44836  97.4876 263.1555 0012845 234.1673 125.8370 15.20965533364009
JILIN-1 GAOFEN 3E       
1 46457U 20065D   26191.30285254  .00059301  00000+0  56134-3 0  9996
2 46457  97.2222 244.4916 0011044  87.6881 272.5644 15.66711002323377
JILIN-1 GAOFEN 3F       
1 46458U 20065E   26191.30731818  .00049775  00000+0  53506-3 0  9993
2 46458  97.2181 241.7139 0012374  74.2169 286.0454 15.63517479323319
JILIN-1 GAOFEN 3G       
1 46459U 20065F   26191.29649459  .00093475  00000+0  59780-3 0  9997
2 46459  97.2236 248.9265 0004822 301.3124  58.7670 15.76044337323578
JILIN-1 GAOFEN 3H       
1 46460U 20065G   26191.32580884  .00076817  00000+0  59522-3 0  9994
2 46460  97.2189 245.1292 0005666 219.6884 140.3966 15.71595453323512
JILIN-1 GAOFEN 2D       
1 49256U 21086A   26191.27581540  .00003042  00000+0  18443-3 0  9995
2 49256  97.6498 313.9837 0034358  66.9500 293.5346 15.10842794264201
JILIN-1 GAOFEN 2F       
1 49338U 21097A   26191.32819901  .00002015  00000+0  13491-3 0  9996
2 49338  97.6719 317.4759 0019600 145.0649 215.1870 15.07925856259805
JILIN-1 GAOFEN 3D27     
1 52444U 22048B   26191.29647902  .00143009  00000+0  70307-3 0  9999
2 52444  97.5715 307.4373 0004595 256.2146 103.8611 15.81777133233125
JILIN-1 GAOFEN 3D28     
1 52445U 22048C   26191.05261817  .00199157  00000+0  78684-3 0  9992
2 52445  97.5652 307.4350 0004279 250.5223 109.5586 15.86277134233140
JILIN-1 GAOFEN 3D29     
1 52446U 22048D   26191.28202652  .00137860  00000+0  67233-3 0  9991
2 52446  97.5711 307.7859 0004013 234.8784 125.2109 15.81968246233149
JILIN-1 GAOFEN 3D31     
1 52448U 22048F   26191.27881329  .00247503  24905-4  77237-3 0  9992
2 52448  97.5687 309.0530 0005011 243.8447 116.2310 15.91509655233240
JILIN-1 GAOFEN 03D09    
1 53445U 22098B   26191.31246760  .00059400  00000+0  49966-3 0  9994
2 53445  97.5612 322.7738 0003134 248.3580 111.7348 15.69690983218255
JILIN-1 GAOFEN 03D43    
1 53448U 22098E   26190.98189104  .00083759  00000+0  60446-3 0  9997
2 53448  97.5600 323.5482 0003418 243.0253 117.0661 15.73272519218279
JILIN-1 GAOFEN 03D08    
1 54251U 22155A   26191.36292858  .00048231  00000+0  45131-3 0  9998
2 54251  97.6221 338.6611 0003998 245.1115 114.9730 15.67113190203444
